ONEWEB-0142             
1 47288U 20100AG  23326.64799482  .00009564  00000+0  26566-1 0  9996
2 47288  87.9017 177.1069 0002097  86.1239 274.0129 13.12328105141693
ONEWEB-0143             
1 47289U 20100AH  23326.67749876 -.00003010  00000+0 -84032-2 0  9997
2 47289  87.9039 177.1239 0001528  87.1935 272.9368 13.12466903141678
ONEWEB-0144             
1 47290U 20100AJ  23326.65045875  .00001442  00000+0  39747-2 0  9993
2 47290  87.9010 177.1057 0001916  97.7977 262.3369 13.12425269141596
ONEWEB-0145             
1 47291U 20100AK  23326.62180950  .00007812  00000+0  21719-1 0  9991
2 47291  87.9021 177.1381 0002426  97.4360 262.7044 13.12259740141783
ONEWEB-0146             
1 47292U 20100AL  23326.61706658  .00006490  00000+0  18016-1 0  9997
2 47292  87.8935 177.1531 0002072  86.2813 273.8553 13.12348853141692
ONEWEB-0147             
1 47293U 20100AM  23326.66000721 -.00001748  00000+0 -48853-2 0  9997
2 47293  87.8983 177.1185 0001667 106.0732 254.0580 13.12593234141596
ONEWEB-0115             
1 48042U 21025A   23326.88628132  .00000305  00000+0  80141-3 0  9996
2 48042  87.8979 146.7723 0001399  82.6277 277.5011 13.13468163130555
ONEWEB-0152             
1 48043U 21025B   23326.89896529  .00000042  00000+0  81014-4 0  9994
2 48043  87.8984 146.7588 0001399  90.1033 270.0256 13.13471355130517
